#dP2019  1 29  0  0  0.00000000      96 __u+U ITR00 FIT  IAC
## 2038 172800.00000000   900.00000000 58512 0.0000000000000
+   91   C02C03C05C06C07C08C09C10C11C12C13C14C16E01E02E03E04
+        E05E07E08E09E11E12E13E14E15E18E19E21E24E25E26E27E30
+        E31E33E36G01G02G03G04G05G06G07G08G09G10G11G12G13G14
+        G15G16G17G18G19G20G21G22G23G24G25G26G27G28G29G30G31
+        G32R01R02R03R04R05R07R08R09R10R11R13R14R15R17R18R19
+        R20R21R22R23R24R26  0  0  0  0  0  0  0  0  0  0  0
++        12 13 12  9  9  9  8  8  8  8  8  8  8  6  6  6  6
++         6  6  6  6  6  6  6  6  6  6  5  6  6  6  5  5  6
++         6  7  7  4  4  4  8  4  4  4  3  4  4  4  4  4  4
++         4  4  4  3  4  4  4  4  4  4  4  4  4  4  4  4  4
++         4  5  5  5  6  6  5  5  6  6  6  6  6  5  5  5  5
++         6  6  6  5  5 10  0  0  0  0  0  0  0  0  0  0  0
%c M  cc GPS ccc cccc cccc cccc cccc ccccc ccccc ccccc ccccc
%c cc cc ccc ccc cccc cccc cccc cccc ccccc ccccc ccccc ccccc
%f  0.0000000  0.000000000  0.00000000000  0.000000000000000
%f  0.0000000  0.000000000  0.00000000000  0.000000000000000
%i    0    0    0    0      0      0      0      0         0
%i    0    0    0    0      0      0      0      0         0
/*                                                          
/*   RSA / INFORMATION & ANALYSIS CENTER (IAC) OF MCC       
/*   ULTRA-RAPID DETERMINATION                              
/* PCV:IGS14_2035 OL/AL:FES2004  NONE     YN ORB:CoN CLK:CoN
*  2019 01 29  1  0  0.00000000
PC02   4518.988818  41907.933470    692.110298   -278.915406
PC03 -14717.111504  39545.177554   -429.115276    -42.323992
PC05  21903.936685  36035.602763    998.847847   -111.690194
PC06  -7201.321730  26145.432619  32655.585030    332.833749
PC07 -24009.922410  26484.781497 -22584.878768    175.805636
PC08 -14730.301447  38428.954718  -8315.154625     99.950856
PC09   5330.106895  33107.974174  25940.805092    487.514289
PC10  -9180.377619  27844.893423 -30277.609653   -447.182426
PC11 -16175.017111  -1177.953230 -22657.102032     21.124957
PC12 -11390.468389 -25232.959638  -3781.979290    379.923691
PC13  -6894.924131  41276.153637   3907.926898   -511.052469
PC14 -26746.231988  -7175.734623  -3164.206573    849.208614
PC16  -4809.407458  26746.034240  32272.832760   -128.386171
PE01  -4143.300778  18744.010986 -22529.704275   -530.752113
PE02   4116.696189 -18740.445364  22543.141807     45.272378
PE03  -6961.356906 -21097.859971 -19569.997932   -127.413269
PE04  22961.990602  18253.729664   3971.092011   -209.750893
PE05  13237.828945 -11591.528453 -23806.135510    117.014807
PE07 -25611.567008  -4657.822488  14098.914802   -121.308785
PE08 -23173.869289 -18004.956066  -3917.449458   6414.243523
PE09  25591.937942   4496.408130 -14165.013816   6544.321664
PE11  16464.849460  -2241.283609  24499.645152   5720.261012
PE12  11741.468182  19673.074437  18763.974898   6046.327658
PE13 -16368.595632   2152.728700 -24554.798442    382.300511
PE14 -20445.616293 -17929.119750  -9335.943032   6453.006362
PE15 -11931.357853 -19285.067251 -19007.461584    921.651643
PE18  11956.786116  25676.851088  -3839.118561   5571.274094
PE19   5031.671294  20540.946491  20710.154512     -8.777500
PE21 -22251.717200  17645.126267  -8343.911203   -516.778458
PE24  27113.637477  -6277.890957 -10127.459828   6261.754943
PE25  22281.990421 -17632.809373   8305.876892   1909.843873
PE26 -11580.705381  22228.327234 -15731.084072   4966.443514
PE27 -26958.413661   6056.180743  10610.208940    540.301409
PE30 -16214.961585  -8870.043399  23108.600993   5151.009321
PE31  15850.976745   9052.325839 -23296.531297    920.703944
PE33    519.375027  29505.963000   2353.213454    847.964443
PE36  11248.170303 -22397.083496  15759.533958    754.129046
PG01  13849.371397 -21779.066411   5359.110363   -153.409168
PG02 -16328.458459   2876.100940 -20109.349661   -125.467514
PG03  16806.251512 -12934.107392 -15982.163523    180.059232
PG04  -9150.400732 -23569.491480  -8125.904020     98.404683
PG05 -26531.831817   2143.555302  -1789.455115      0.951737
PG06 -11210.651337 -10762.862228 -21494.830894    287.378652
PG07   4622.778334 -24499.132063   8694.298927     42.949872
PG08  14462.217800  -5455.306910  21668.008263   -130.759111
PG09  -4348.755166 -22274.136447 -13840.382442    465.878154
PG10  14346.026141  11826.750320  19089.097678    127.289069
PG11  10210.538808 -20189.632536  13554.177776   -668.611459
PG12 -19358.295111  10606.426170 -14836.385699    272.534108
PG13 -17385.742088  -3403.046280  19681.700573    -76.717008
PG14  17971.908461  17385.101495  -8913.270259    -92.378226
PG15 -12958.164320   9151.917211  21060.074146   -330.273011
PG16  26788.933673    136.703978   -990.677697    -15.665645
PG17 -14370.370497 -22399.869062    212.084281      1.890177
PG18  16488.371285 -14870.470613  13991.010271     20.444620
PG19 -17704.362844 -17283.256073  -9805.115772   -358.405071
PG20   4227.324505  15257.417766  21214.311088    521.629000
PG21   -618.540632  24446.823175  11287.406312   -260.508396
PG22  22419.496389 -10767.744511  -9015.124172   -633.255777
PG23   5408.406447 -16523.028197 -19655.457483   -199.050809
PG24 -15084.142424  19334.902308   9631.885257    -61.430354
PG25  -7814.993729  14954.793503 -20642.968325   -712.591639
PG26  24113.885645   4396.883759 -10459.728843    109.358543
PG27  18896.612922   5416.379216  17910.139578    -57.353285
PG28 -11572.008072 -13391.972216  20392.999932    763.223579
PG29   -104.387498  20617.453129 -16764.660294    282.916028
PG30  -4063.442911 -19776.803319  17183.161476    -43.530108
PG31  12853.186782   8252.185247 -21695.957646     62.499356
PG32  17051.778370  20297.674309  -2368.630375   -253.259821
PR01   3473.548753  12596.719734  21900.490719     38.640516
PR02  20852.539092  12330.223632   8104.127198    351.642945
PR03  23322.241777   4276.265170  -9430.195767     -9.251773
PR04  11727.881105  -6524.240647 -21685.113700    293.089096
PR05  -5801.740364 -12936.451763 -21194.863187     20.991471
PR07 -23133.145281  -3944.121309   9981.208410    -56.791962
PR08 -12383.948574   6148.026583  21479.961511     19.336758
PR09 -11468.133056  -4730.478800  22309.275729     51.437625
PR10 -20209.272653   7846.531591  13480.925926     40.659016
PR11 -18377.109410  17191.080956  -4281.794468    -54.978052
PR13  10325.488882   5379.772714 -22715.027147    -19.501729
PR14  20206.833807  -7857.602641 -13424.937503     35.420398
PR15  18756.630338 -16946.608718   3475.406325     99.544273
PR17  10979.963471   2163.442506  22935.245428    200.013824
PR18   6528.438865 -15533.001313  19148.641281     31.191707
PR19   -925.532961 -25025.246879   4863.245044    -61.628904
PR20  -8693.158950 -19537.754870 -13854.119706   -367.085125
PR21 -10844.904487  -1625.298172 -23024.086759    -28.182504
PR22  -5471.054774  17762.246853 -17523.843342    -64.273299
PR23   3649.301931  25247.799184     64.889622    206.141483
PR24   9474.153771  18299.931247  15028.508450   -176.559674
PR26  -8508.694236 -20817.172162 -12043.577236     -5.397863
EOF
